NORAD_CAT_ID,OBJECT_NAME,OBJECT_TYPE,EPOCH,MEAN_MOTION,ECCENTRICITY,INCLINATION,RA_OF_ASC_NODE,ARG_OF_PERICENTER,MEAN_ANOMALY,BSTAR,MEAN_MOTION_DOT,MEAN_MOTION_DDOT,TLE_LINE0,TLE_LINE1,TLE_LINE2,SEMIMAJOR_AXIS,PERIOD,APOGEE,PERIGEE,DECAYED
52453.0,STARLINK-3872,PAYLOAD,2023-07-27 23:49:39,15.08833463,0.0001229,53.2164,39.4091,94.3186,265.7947,-9.6564e-06,-4.41e-06,0.0,0 STARLINK-3872,1 52453U 22049C   23208.99281739 -.00000441  00000-0 -96564-5 0  9995,2 52453  53.2164  39.4091 0001229  94.3186 265.7947 15.08833463 67995,6917.9,95.438,540.616,538.915,0.0
52453.0,STARLINK-3872,PAYLOAD,2023-07-28 12:32:44,15.0883462,0.0001145,53.2153,37.0312,96.5045,263.6078,5.9387e-05,6.57e-06,0.0,0 STARLINK-3872,1 52453U 22049C   23209.52273861  .00000657  00000-0  59387-4 0  9990,2 52453  53.2153  37.0312 0001145  96.5045 263.6078 15.08834620 67918,6917.897,95.438,540.554,538.97,0.0
52453.0,STARLINK-3872,PAYLOAD,2023-07-28 15:43:30,15.0884475,0.0001215,53.2166,36.4374,90.9356,269.1775,7.2086e-06,-1.73e-06,0.0,0 STARLINK-3872,1 52453U 22049C   23209.65521549 -.00000173  00000-0  72086-5 0  9999,2 52453  53.2166  36.4374 0001215  90.9356 269.1775 15.08844750 68094,6917.866,95.437,540.571,538.89,0.0
52453.0,STARLINK-3872,PAYLOAD,2023-07-29 18:45:03,15.08845874,0.0001231,53.2162,31.3825,91.1301,268.9833,0.00025531,3.778e-05,0.0,0 STARLINK-3872,1 52453U 22049C   23210.78129554  .00003778  00000-0  25531-3 0  9999,2 52453  53.2162  31.3825 0001231  91.1301 268.9833 15.08845874 68265,6917.862,95.437,540.579,538.876,0.0
52453.0,STARLINK-3872,PAYLOAD,2023-07-30 18:35:51,15.08845563,0.0001127,53.2174,26.9231,83.2825,276.8295,0.00016465,2.334e-05,0.0,0 STARLINK-3872,1 52453U 22049C   23211.77489615  .00002334  00000-0  16465-3 0  9999,2 52453  53.2174  26.9231 0001127  83.2825 276.8295 15.08845563 68418,6917.863,95.437,540.508,538.949,0.0
52453.0,STARLINK-3872,PAYLOAD,2023-07-31 04:08:09,15.08835869,0.0001037,53.2177,25.1385,99.6018,260.5091,-6.9344e-05,-1.391e-05,0.0,0 STARLINK-3872,1 52453U 22049C   23212.17233685 -.00001391  00000-0 -69344-4 0  9997,2 52453  53.2177  25.1385 0001037  99.6018 260.5091 15.08835869 68475,6917.893,95.438,540.475,539.041,0.0
52453.0,STARLINK-3872,PAYLOAD,2023-07-31 18:26:38,15.08847764,0.0001033,53.2176,22.462,102.4141,257.6967,0.00096876,0.00015167,0.0,0 STARLINK-3872,1 52453U 22049C   23212.76849715  .00015167  00000-0  96876-3 0  9992,2 52453  53.2176  22.4620 0001033 102.4141 257.6967 15.08847764 68568,6917.857,95.437,540.436,539.007,0.0
52453.0,STARLINK-3872,PAYLOAD,2023-08-01 16:42:01,15.08853406,0.0001085,53.2176,18.2995,111.6078,248.503,0.00070576,0.00010966,0.0,0 STARLINK-3872,1 52453U 22049C   23213.69585504  .00010966  00000-0  70576-3 0  9999,2 52453  53.2176  18.2995 0001085 111.6078 248.5030 15.08853406 68700,6917.839,95.437,540.455,538.954,0.0
52453.0,STARLINK-3872,PAYLOAD,2023-08-02 03:49:43,15.08845053,0.0001038,53.2174,16.2127,86.8888,273.2223,0.00032657,4.914e-05,0.0,0 STARLINK-3872,1 52453U 22049C   23214.15953576  .00004914  00000-0  32657-3 0  9993,2 52453  53.2174  16.2127 0001038  86.8888 273.2223 15.08845053 68778,6917.865,95.437,540.448,539.012,0.0
52453.0,STARLINK-3872,PAYLOAD,2023-08-03 10:02:03,15.0883169,0.0001073,53.2186,10.5644,122.3332,237.7764,-9.6685e-05,-1.826e-05,0.0,0 STARLINK-3872,1 52453U 22049C   23215.41809982 -.00001826  00000-0 -96685-4 0  9997,2 52453  53.2186  10.5644 0001073 122.3332 237.7764 15.08831690 68969,6917.906,95.438,540.513,539.028,0.0
52453.0,STARLINK-3872,PAYLOAD,2023-08-03 22:45:08,15.08847025,8.61e-05,53.2174,8.188,104.6321,255.4766,0.0002614,3.876e-05,0.0,0 STARLINK-3872,1 52453U 22049C   23215.94801683  .00003876  00000-0  26140-3 0  9998,2 52453  53.2174   8.1880 0000861 104.6321 255.4766 15.08847025 69044,6917.859,95.437,540.32,539.128,0.0
52453.0,STARLINK-3872,PAYLOAD,2023-08-04 09:52:51,15.08832245,6.08e-05,53.2186,6.1064,80.6347,279.4714,4.3614e-05,4.06e-06,0.0,0 STARLINK-3872,1 52453U 22049C   23216.41170400  .00000406  00000-0  43614-4 0  9999,2 52453  53.2186   6.1064 0000608  80.6347 279.4714 15.08832245 69114,6917.904,95.438,540.19,539.348,0.0
52453.0,STARLINK-3872,PAYLOAD,2023-08-04 16:14:23,15.08841823,9.36e-05,53.2163,4.9178,93.5843,266.5256,0.00046061,7.051e-05,0.0,0 STARLINK-3872,1 52453U 22049C   23216.67666199  .00007051  00000-0  46061-3 0  9993,2 52453  53.2163   4.9178 0000936  93.5843 266.5256 15.08841823 69153,6917.875,95.437,540.387,539.092,0.0
52453.0,STARLINK-3872,PAYLOAD,2023-08-06 09:34:25,15.08831089,7.58e-05,53.2161,357.1872,99.1309,260.9769,-7.7278e-05,-1.517e-05,0.0,0 STARLINK-3872,1 52453U 22049C   23218.39890414 -.00001517  00000-0 -77278-4 0  9991,2 52453  53.2161 357.1872 0000758  99.1309 260.9769 15.08831089 69415,6917.908,95.438,540.297,539.248,0.0
52453.0,STARLINK-3872,PAYLOAD,2023-08-06 15:55:58,15.08819164,7.45e-05,53.2175,355.9979,99.154,260.9537,-0.0002868,-4.846e-05,0.0,0 STARLINK-3872,1 52453U 22049C   23218.66387152 -.00004846  00000-0 -28680-3 0  9991,2 52453  53.2175 355.9979 0000745  99.1540 260.9537 15.08819164 69454,6917.944,95.439,540.324,539.294,0.0
52453.0,STARLINK-3872,PAYLOAD,2023-08-07 09:25:13,15.08828681,7.91e-05,53.2184,352.7277,103.815,256.293,3.4604e-05,2.63e-06,0.0,0 STARLINK-3872,1 52453U 22049C   23219.39251849  .00000263  00000-0  34604-4 0  9996,2 52453  53.2184 352.7277 0000791 103.8150 256.2930 15.08828681 69562,6917.915,95.438,540.327,539.233,0.0
52453.0,STARLINK-3872,PAYLOAD,2023-08-08 01:19:05,15.08851037,7.73e-05,53.2184,349.7544,105.4202,254.6875,0.00094426,0.00014776,0.0,0 STARLINK-3872,1 52453U 22049C   23220.05491970  .00014776  00000-0  94426-3 0  9993,2 52453  53.2184 349.7544 0000773 105.4202 254.6875 15.08851037 69663,6917.847,95.437,540.246,539.177,0.0
52453.0,STARLINK-3872,PAYLOAD,2023-08-09 09:06:46,15.08857487,7.33e-05,53.2174,343.8071,100.2764,259.8311,0.00033584,5.064e-05,0.0,0 STARLINK-3872,1 52453U 22049C   23221.37970699  .00005064  00000-0  33584-3 0  9997,2 52453  53.2174 343.8071 0000733 100.2764 259.8311 15.08857487 69863,6917.827,95.436,540.199,539.185,0.0
52453.0,STARLINK-3872,PAYLOAD,2023-08-09 13:52:56,15.08852101,6.88e-05,53.2173,342.9148,61.3976,298.7085,0.0002088,3.038e-05,0.0,0 STARLINK-3872,1 52453U 22049C   23221.57842943  .00003038  00000-0  20880-3 0  9993,2 52453  53.2173 342.9148 0000688  61.3976 298.7085 15.08852101 69899,6917.843,95.437,540.184,539.232,0.0
52453.0,STARLINK-3872,PAYLOAD,2023-08-10 08:57:34,15.08838593,7.88e-05,53.2172,339.3462,64.5634,295.5439,-8.135e-05,-1.582e-05,0.0,0 STARLINK-3872,1 52453U 22049C   23222.37331264 -.00001582  00000-0 -81350-4 0  9995,2 52453  53.2172 339.3462 0000788  64.5634 295.5439 15.08838593 70017,6917.885,95.438,540.295,539.205,0.0
52453.0,STARLINK-3872,PAYLOAD,2023-08-10 16:54:29,15.08851618,8.56e-05,53.2171,337.8583,78.7358,281.373,0.00012129,1.644e-05,0.0,0 STARLINK-3872,1 52453U 22049C   23222.70450691  .00001644  00000-0  12129-3 0  9992,2 52453  53.2171 337.8583 0000856  78.7358 281.3730 15.08851618 70064,6917.845,95.437,540.302,539.118,0.0
52453.0,STARLINK-3872,PAYLOAD,2023-08-11 00:51:25,15.08841516,8.12e-05,53.2158,336.37,71.4219,288.6861,5.3795e-05,5.69e-06,0.0,0 STARLINK-3872,1 52453U 22049C   23223.03571164  .00000569  00000-0  53795-4 0  9998,2 52453  53.2158 336.3700 0000812  71.4219 288.6861 15.08841516 70119,6917.876,95.437,540.302,539.179,0.0
52453.0,STARLINK-3872,PAYLOAD,2023-08-11 16:45:16,15.08851332,8.23e-05,53.2168,333.3982,59.9708,300.1366,0.00023167,3.402e-05,0.0,0 STARLINK-3872,1 52453U 22049C   23223.69810559  .00003402  00000-0  23167-3 0  9992,2 52453  53.2168 333.3982 0000823  59.9708 300.1366 15.08851332 70213,6917.846,95.437,540.28,539.141,0.0
52453.0,STARLINK-3872,PAYLOAD,2023-08-12 00:42:12,15.08841997,6.64e-05,53.2164,331.9115,62.7639,297.342,0.00010605,1.401e-05,0.0,0 STARLINK-3872,1 52453U 22049C   23224.02930957  .00001401  00000-0  10605-3 0  9995,2 52453  53.2164 331.9115 0000664  62.7639 297.3420 15.08841997 70268,6917.874,95.437,540.199,539.28,0.0
52453.0,STARLINK-3872,PAYLOAD,2023-08-13 11:40:41,15.08834606,7.1e-05,53.2163,325.369,80.4052,279.7021,7.0319e-05,8.32e-06,0.0,0 STARLINK-3872,1 52453U 22049C   23225.48659449  .00000832  00000-0  70319-4 0  9996,2 52453  53.2163 325.3690 0000710  80.4052 279.7021 15.08834606 70484,6917.897,95.438,540.253,539.271,0.0
52453.0,STARLINK-3872,PAYLOAD,2023-08-14 17:53:00,15.08847556,9.03e-05,53.2172,319.7187,97.2435,262.866,7.2012e-05,8.59e-06,0.0,0 STARLINK-3872,1 52453U 22049C   23226.74514594  .00000859  00000-0  72012-4 0  9998,2 52453  53.2172 319.7187 0000903  97.2435 262.8660 15.08847556 70678,6917.857,95.437,540.347,539.098,0.0
52453.0,STARLINK-3872,PAYLOAD,2023-08-15 09:46:52,15.08840485,0.000131,53.2152,316.7454,98.3045,261.8096,0.0001055,1.392e-05,0.0,0 STARLINK-3872,1 52453U 22049C   23227.40755128  .00001392  00000-0  10550-3 0  9993,2 52453  53.2152 316.7454 0001310  98.3045 261.8096 15.08840485 70779,6917.879,95.438,540.65,538.838,0.0
52453.0,STARLINK-3872,PAYLOAD,2023-08-16 09:37:39,15.08836243,0.0001153,53.2186,312.2865,101.3861,258.726,1.2444e-05,-9e-07,0.0,0 STARLINK-3872,1 52453U 22049C   23228.40115720 -.00000090  00000-0  12444-4 0  9992,2 52453  53.2186 312.2865 0001153 101.3861 258.7260 15.08836243 70921,6917.892,95.438,540.555,538.959,0.0
52453.0,STARLINK-3872,PAYLOAD,2023-08-16 22:20:44,15.08846287,0.0001206,53.2191,309.9087,107.8259,252.2865,-0.00011717,-2.152e-05,0.0,0 STARLINK-3872,1 52453U 22049C   23228.93107335 -.00002152  00000-0 -11717-3 0  9996,2 52453  53.2191 309.9087 0001206 107.8259 252.2865 15.08846287 71006,6917.861,95.437,540.56,538.892,0.0
52453.0,STARLINK-3872,PAYLOAD,2023-08-18 04:33:04,15.088336,0.000132,53.2179,304.2579,92.1643,267.95,8.3808e-05,1.046e-05,0.0,0 STARLINK-3872,1 52453U 22049C   23230.18963904  .00001046  00000-0  83808-4 0  9998,2 52453  53.2179 304.2579 0001320  92.1643 267.9500 15.08833600 71190,6917.9,95.438,540.678,538.852,0.0
